NORAD_CAT_ID,OBJECT_NAME,OBJECT_TYPE,EPOCH,MEAN_MOTION,ECCENTRICITY,INCLINATION,RA_OF_ASC_NODE,ARG_OF_PERICENTER,MEAN_ANOMALY,BSTAR,MEAN_MOTION_DOT,MEAN_MOTION_DDOT,TLE_LINE0,TLE_LINE1,TLE_LINE2,SEMIMAJOR_AXIS,PERIOD,APOGEE,PERIGEE,DECAYED
55923.0,STARLINK-5854,PAYLOAD,2024-04-07 21:16:49,14.9833335,0.0003078,69.9981,271.4268,270.7022,89.3784,8.4261e-06,8e-08,0.0,0 STARLINK-5854,1 55923U 23037K   24098.88668090  .00000008  00000-0  84261-5 0  9991,2 55923  69.9981 271.4268 0003078 270.7022  89.3784 14.98333350 58850,6950.183,96.107,574.187,569.908,0.0
55923.0,STARLINK-5854,PAYLOAD,2024-04-08 11:42:01,14.98329255,0.0003048,69.9978,269.9115,270.6725,89.4085,2.6049e-06,-6.2e-07,0.0,0 STARLINK-5854,1 55923U 23037K   24099.48752303 -.00000062  00000-0  26049-5 0  9990,2 55923  69.9978 269.9115 0003048 270.6725  89.4085 14.98329255 58602,6950.195,96.107,574.179,569.942,0.0
55923.0,STARLINK-5854,PAYLOAD,2024-04-08 21:18:50,14.98329186,0.0003065,69.9969,268.9017,271.2235,88.8572,4.0949e-06,-4.4e-07,0.0,0 STARLINK-5854,1 55923U 23037K   24099.88808302 -.00000044  00000-0  40949-5 0  9990,2 55923  69.9969 268.9017 0003065 271.2235  88.8572 14.98329186 58667,6950.195,96.107,574.191,569.93,0.0
55923.0,STARLINK-5854,PAYLOAD,2024-04-09 10:07:54,14.98330183,0.000304,69.995,267.5546,270.753,89.328,-1.772e-05,-3.04e-06,0.0,0 STARLINK-5854,1 55923U 23037K   24100.42216282 -.00000304  00000-0 -17720-4 0  9993,2 55923  69.9950 267.5546 0003040 270.7530  89.3280 14.98330183 58744,6950.192,96.107,574.17,569.944,0.0
55923.0,STARLINK-5854,PAYLOAD,2024-04-09 21:20:51,14.9833012,0.0003063,69.9951,266.3763,270.7453,89.3356,-2.8493e-05,-4.33e-06,0.0,0 STARLINK-5854,1 55923U 23037K   24100.88948277 -.00000433  00000-0 -28493-4 0  9991,2 55923  69.9951 266.3763 0003063 270.7453  89.3356 14.98330120 58815,6950.193,96.107,574.186,569.929,0.0
55923.0,STARLINK-5854,PAYLOAD,2024-04-10 10:09:56,14.98325455,0.0003027,69.9949,265.0293,271.2961,88.7851,-2.3282e-05,-3.71e-06,0.0,0 STARLINK-5854,1 55923U 23037K   24101.42356621 -.00000371  00000-0 -23282-4 0  9990,2 55923  69.9949 265.0293 0003027 271.2961  88.7851 14.98325455 58892,6950.207,96.107,574.176,569.968,0.0
55923.0,STARLINK-5854,PAYLOAD,2024-04-10 21:22:52,14.98325299,0.0002986,69.9997,263.8523,272.896,87.1857,-2.068e-05,-3.4e-06,0.0,0 STARLINK-5854,1 55923U 23037K   24101.89088794 -.00000340  00000-0 -20680-4 0  9999,2 55923  69.9997 263.8523 0002986 272.8960  87.1857 14.98325299 59308,6950.207,96.107,574.148,569.997,0.0
55923.0,STARLINK-5854,PAYLOAD,2024-04-11 13:24:12,14.98333056,0.0003094,69.9992,262.1688,270.9726,89.1079,3.9075e-05,3.73e-06,0.0,0 STARLINK-5854,1 55923U 23037K   24102.55848115  .00000373  00000-0  39075-4 0  9996,2 55923  69.9992 262.1688 0003094 270.9726  89.1079 14.98333056 59406,6950.183,96.107,574.199,569.898,0.0
55923.0,STARLINK-5854,PAYLOAD,2024-04-11 19:48:44,14.98335876,0.0003034,69.9995,261.4958,270.45,89.6311,7.0562e-05,7.49e-06,0.0,0 STARLINK-5854,1 55923U 23037K   24102.82551779  .00000749  00000-0  70562-4 0  9996,2 55923  69.9995 261.4958 0003034 270.4500  89.6311 14.98335876 59103,6950.175,96.107,574.148,569.931,0.0
55923.0,STARLINK-5854,PAYLOAD,2024-04-12 11:50:03,14.98356412,0.0003007,69.9991,259.8124,272.2802,87.8012,0.00030299,3.526e-05,0.0,0 STARLINK-5854,1 55923U 23037K   24103.49309071  .00003526  00000-0  30299-3 0  9994,2 55923  69.9991 259.8124 0003007 272.2802  87.8012 14.98356412 59545,6950.111,96.105,574.066,569.886,0.0
55923.0,STARLINK-5854,PAYLOAD,2024-04-12 13:26:11,14.9835467,0.0003084,69.9994,259.6441,272.7681,87.3125,0.00028027,3.255e-05,0.0,0 STARLINK-5854,1 55923U 23037K   24103.55985129  .00003255  00000-0  28027-3 0  9990,2 55923  69.9994 259.6441 0003084 272.7681  87.3125 14.98354670 59211,6950.117,96.105,574.125,569.838,0.0
55923.0,STARLINK-5854,PAYLOAD,2024-04-12 15:02:19,14.98346775,0.0003411,69.9996,259.4766,278.5789,81.4984,0.00019544,2.241e-05,0.0,0 STARLINK-5854,1 55923U 23037K   24103.62661773  .00002241  00000-0  19544-3 0  9992,2 55923  69.9996 259.4766 0003411 278.5789  81.4984 14.98346775 59561,6950.141,96.106,574.377,569.635,0.0
55923.0,STARLINK-5854,PAYLOAD,2024-04-13 13:28:15,14.98320318,0.0002753,70.0009,257.1188,267.4551,92.6293,-0.00017354,-2.162e-05,0.0,0 STARLINK-5854,1 55923U 23037K   24104.56128742 -.00002162  00000-0 -17354-3 0  9991,2 55923  70.0009 257.1188 0002753 267.4551  92.6293 14.98320318 59702,6950.223,96.108,574.001,570.174,0.0
55923.0,STARLINK-5854,PAYLOAD,2024-04-13 19:52:47,14.98318989,0.0002778,70.0006,256.4458,267.2974,92.7867,-0.00017638,-2.196e-05,0.0,0 STARLINK-5854,1 55923U 23037K   24104.82832997 -.00002196  00000-0 -17638-3 0  9996,2 55923  70.0006 256.4458 0002778 267.2974  92.7867 14.98318989 59401,6950.227,96.108,574.023,570.161,0.0
55923.0,STARLINK-5854,PAYLOAD,2024-04-14 11:54:10,14.98311937,0.0002046,70.0034,254.7685,253.9517,106.1417,-0.00049351,-5.973e-05,0.0,0 STARLINK-5854,1 55923U 23037K   24105.49595075 -.00005973  00000-0 -49351-3 0  9996,2 55923  70.0034 254.7685 0002046 253.9517 106.1417 14.98311937 59843,6950.249,96.108,573.536,570.692,0.0
55923.0,STARLINK-5854,PAYLOAD,2024-04-14 19:54:46,14.98361815,0.0002542,70.0027,253.9262,252.8408,107.2473,0.00010396,1.149e-05,0.0,0 STARLINK-5854,1 55923U 23037K   24105.82970486  .00001149  00000-0  10396-3 0  9992,2 55923  70.0027 253.9262 0002542 252.8408 107.2473 14.98361815 59894,6950.095,96.105,573.726,570.193,0.0
55923.0,STARLINK-5854,PAYLOAD,2024-04-15 13:32:13,14.98349753,0.0003093,70.0012,252.0699,220.1635,139.9296,0.0004202,4.927e-05,0.0,0 STARLINK-5854,1 55923U 23037K   24106.56404836  .00004927  00000-0  42020-3 0  9991,2 55923  70.0012 252.0699 0003093 220.1635 139.9296 14.98349753 59661,6950.132,96.106,574.146,569.847,0.0
55923.0,STARLINK-5854,PAYLOAD,2024-04-15 19:56:49,14.98314441,0.0002829,70.0012,251.3978,260.6489,99.435,2.4012e-05,1.93e-06,0.0,0 STARLINK-5854,1 55923U 23037K   24106.83112314  .00000193  00000-0  24012-4 0  9991,2 55923  70.0012 251.3978 0002829 260.6489  99.4350 14.98314441 60046,6950.241,96.108,574.072,570.14,0.0
55923.0,STARLINK-5854,PAYLOAD,2024-04-16 13:34:18,14.98307777,0.0002662,70.0009,249.5449,266.7438,93.3416,0.00017141,1.952e-05,0.0,0 STARLINK-5854,1 55923U 23037K   24107.56549056  .00001952  00000-0  17141-3 0  9997,2 55923  70.0009 249.5449 0002662 266.7438  93.3416 14.98307777 59813,6950.262,96.108,573.977,570.276,0.0
55923.0,STARLINK-5854,PAYLOAD,2024-04-16 19:58:49,14.98321435,0.000257,70.0006,248.8725,264.6955,95.3911,0.00026643,3.087e-05,0.0,0 STARLINK-5854,1 55923U 23037K   24107.83252057  .00003087  00000-0  26643-3 0  9997,2 55923  70.0006 248.8725 0002570 264.6955  95.3911 14.98321435 60190,6950.219,96.108,573.871,570.298,0.0
55923.0,STARLINK-5854,PAYLOAD,2024-04-17 13:36:18,14.98336662,0.0003021,70.0001,247.0207,269.2735,90.8078,-0.00048634,-5.892e-05,0.0,0 STARLINK-5854,1 55923U 23037K   24108.56688348 -.00005892  00000-0 -48634-3 0  9996,2 55923  70.0001 247.0207 0003021 269.2735  90.8078 14.98336662 59965,6950.172,96.107,574.137,569.938,0.0
55923.0,STARLINK-5854,PAYLOAD,2024-04-17 18:24:42,14.98338667,0.0002911,70.0006,246.5159,261.869,98.2139,-0.00044443,-5.393e-05,0.0,0 STARLINK-5854,1 55923U 23037K   24108.76716008 -.00005393  00000-0 -44443-3 0  9993,2 55923  70.0006 246.5159 0002911 261.8690  98.2139 14.98338667 59995,6950.166,96.106,574.054,570.008,0.0
55923.0,STARLINK-5854,PAYLOAD,2024-04-18 12:02:11,14.98326656,0.000291,70.0004,244.6635,267.9394,92.1432,9.8691e-05,1.085e-05,0.0,0 STARLINK-5854,1 55923U 23037K   24109.50151923  .00001085  00000-0  98691-4 0  9992,2 55923  70.0004 244.6635 0002910 267.9394  92.1432 14.98326656 60444,6950.203,96.107,574.091,570.046,0.0
55923.0,STARLINK-5854,PAYLOAD,2024-04-18 18:26:42,14.98336096,0.0002746,70.001,243.9913,261.6081,98.4767,0.00017293,1.971e-05,0.0,0 STARLINK-5854,1 55923U 23037K   24109.76855101  .00001971  00000-0  17293-3 0  9991,2 55923  70.0010 243.9913 0002746 261.6081  98.4767 14.98336096 60486,6950.174,96.107,573.948,570.131,0.0
55923.0,STARLINK-5854,PAYLOAD,2024-04-19 12:04:12,14.98322317,0.0002654,70.002,242.1413,249.8992,110.1881,0.00013207,1.483e-05,0.0,0 STARLINK-5854,1 55923U 23037K   24110.50292131  .00001483  00000-0  13207-3 0  9992,2 55923  70.0020 242.1413 0002654 249.8992 110.1881 14.98322317 60592,6950.217,96.107,573.926,570.237,0.0
55923.0,STARLINK-5854,PAYLOAD,2024-04-19 13:40:20,14.98323039,0.0002639,70.0019,241.9731,249.4203,110.6673,0.00013848,1.559e-05,0.0,0 STARLINK-5854,1 55923U 23037K   24110.56968095  .00001559  00000-0  13848-3 0  9992,2 55923  70.0019 241.9731 0002639 249.4203 110.6673 14.98323039 60264,6950.214,96.107,573.914,570.245,0.0
55923.0,STARLINK-5854,PAYLOAD,2024-04-19 18:28:44,14.98330113,0.0002579,70.0027,241.469,234.6237,125.4682,0.00023738,2.741e-05,0.0,0 STARLINK-5854,1 55923U 23037K   24110.76995383  .00002741  00000-0  23738-3 0  9997,2 55923  70.0027 241.4690 0002579 234.6237 125.4682 14.98330113 60634,6950.193,96.107,573.85,570.265,0.0
55923.0,STARLINK-5854,PAYLOAD,2024-04-20 13:42:20,14.98342037,0.0002676,70.0017,239.4476,245.7051,114.3829,3.4432e-05,3.18e-06,0.0,0 STARLINK-5854,1 55923U 23037K   24111.57106599  .00000318  00000-0  34432-4 0  9992,2 55923  70.0017 239.4476 0002676 245.7051 114.3829 14.98342037 60411,6950.156,96.106,573.881,570.161,0.0
55923.0,STARLINK-5854,PAYLOAD,2024-04-20 18:30:43,14.98356143,0.0002565,70.0023,238.9466,247.5403,112.5485,-0.00015588,-1.954e-05,0.0,0 STARLINK-5854,1 55923U 23037K   24111.77133990 -.00001954  00000-0 -15588-3 0  9998,2 55923  70.0023 238.9466 0002565 247.5403 112.5485 14.98356143 60780,6950.112,96.105,573.76,570.194,0.0
55923.0,STARLINK-5854,PAYLOAD,2024-04-21 13:44:23,14.98300832,0.0002627,70.0011,236.9212,262.5952,97.4908,1.5025e-05,8.6e-07,0.0,0 STARLINK-5854,1 55923U 23037K   24112.57249217  .00000086  00000-0  15025-4 0  9997,2 55923  70.0011 236.9212 0002627 262.5952  97.4908 14.98300832 60560,6950.283,96.109,573.974,570.322,0.0
